[{"OBJECT_NAME":"LEMUR-2-THEFALCONER","OBJECT_ID":"2025-052BG","EPOCH":"2026-03-09T22:50:08.545056","MEAN_MOTION":14.96514677,"ECCENTRICITY":0.00021143,"INCLINATION":97.6968,"RA_OF_ASC_NODE":322.9473,"ARG_OF_PERICENTER":10.9074,"MEAN_ANOMALY":349.2193,"EPHEMERIS_TYPE":0,"CLASSIFICATION_TYPE":"U","NORAD_CAT_ID":63264,"ELEMENT_SET_NO":999,"REV_AT_EPOCH":5384,"BSTAR":0.00055972494,"MEAN_MOTION_DOT":6.306e-5,"MEAN_MOTION_DDOT":0},{"OBJECT_NAME":"COSMOS 2251 DEB","OBJECT_ID":"1993-036AKM","EPOCH":"2026-03-09T06:40:10.063200","MEAN_MOTION":15.08111536,"ECCENTRICITY":0.00695902,"INCLINATION":73.9816,"RA_OF_ASC_NODE":154.5784,"ARG_OF_PERICENTER":280.7947,"MEAN_ANOMALY":78.5416,"EPHEMERIS_TYPE":0,"CLASSIFICATION_TYPE":"U","NORAD_CAT_ID":35443,"ELEMENT_SET_NO":999,"REV_AT_EPOCH":88177,"BSTAR":0.0043181541,"MEAN_MOTION_DOT":0.00071124,"MEAN_MOTION_DDOT":0}]
